ONEWEB-0513             
1 54131U 22138U   23059.07184636 -.00014327  00000+0 -25678-1 0  9991
2 54131  87.9874 184.5386 0005475  51.3208 308.8427 13.41838783 18595
ONEWEB-0513             
1 54131U 22138U   23059.58334491 -.00011593  00000+0 -20799-1 0  9994
2 54131  88.0113 184.4380 0001464  72.5434 237.1353 13.41772401  1303
ONEWEB-0513             
1 54131U 22138U   23059.89215368 -.00028248  00000+0 -50608-1 0  9996
2 54131  88.0114 184.3748 0001571  37.6493 322.4762 13.41943355 18709
ONEWEB-0513             
1 54131U 22138U   23060.04122336  .00001728  00000+0  30684-2 0  9992
2 54131  88.0118 184.3482 0000928 103.2561 256.8688 13.41760555 18727
ONEWEB-0513             
1 54131U 22138U   23060.86152273  .00001540  00000+0  27315-2 0  9994
2 54131  88.0121 184.1861 0001209 102.2679 257.8601 13.41761526 17962
ONEWEB-0513             
1 54131U 22138U   23061.08524106  .00001305  00000+0  23110-2 0  9995
2 54131  88.0121 184.1420 0001506  72.8292 287.3018 13.41763820 18865
ONEWEB-0513             
1 54131U 22138U   23061.83096139 -.00000228  00000+0 -43276-3 0  9999
2 54131  88.0121 183.9948 0001347  72.8242 287.3051 13.41769825 18098
ONEWEB-0513             
1 54131U 22138U   23062.35343820 -.00055389  00000+0 -10046+0 0  9992
2 54131  88.0125 183.8920 0001128  87.4812 272.6463 13.41334754 18164
ONEWEB-0513             
1 54131U 22138U   23062.35343820 -.00055389  00000+0 -10046+0 0  9992
2 54131  88.0125 183.8920 0001128  87.4812 272.6463 13.41334754 19031
ONEWEB-0513             
1 54131U 22138U   23062.57752377 -.00087930  00000+0 -16077+0 0  9994
2 54131  88.0124 183.8479 0001380  33.0038 327.1193 13.41048310 19065
ONEWEB-0513             
1 54131U 22138U   23062.87641576 -.00133033  00000+0 -24607+0 0  9999
2 54131  88.0116 183.7893 0003396  29.4331 330.7004 13.40626308 18236
ONEWEB-0513             
1 54131U 22138U   23062.87641576 -.00133033  00000+0 -24607+0 0  9999
2 54131  88.0116 183.7893 0003396  29.4331 330.7004 13.40626308 19103
